ORBCOMM FM37            
1 33064U 08031E   24193.33699747  .00002288  00000+0  35204-3 0  9991
2 33064  48.4388 160.6857 0006219 353.2627 160.1751 14.76781978863930
ORBCOMM FM40            
1 33065U 08031F   24193.41025001  .00002890  00000+0  42290-3 0  9999
2 33065  48.4414 149.0947 0007417   4.2077 143.2133 14.78191558864113
VESSELSAT 1             
1 37840U 11058C   24193.79731886  .00000393  00000+0  70224-4 0  9998
2 37840  19.9635 353.3305 0013786  42.9005 317.2473 14.11173282658392
ORBCOMM FM109           
1 40086U 14040A   24193.37321248  .00000993  00000+0  25682-3 0  9992
2 40086  47.0021 184.4085 0001892 220.8355 139.2388 14.56801727531463
ORBCOMM FM107           
1 40087U 14040B   24193.33842638  .00000667  00000+0  18481-3 0  9997
2 40087  47.0037 185.5432 0000820 202.4524 157.6325 14.56809973531458
ORBCOMM FM106           
1 40088U 14040C   24193.63910549  .00001406  00000+0  27895-3 0  9999
2 40088  47.0623  32.6525 0018253 284.2380  75.6483 14.67276643533632
ORBCOMM FM111           
1 40089U 14040D   24193.65228246  .00002431  00000+0  32499-3 0  9993
2 40089  47.0043 286.2128 0032837   3.1883 356.9216 14.82211077539637
ORBCOMM FM104           
1 40090U 14040E   24193.51100327  .00000602  00000+0  17610-3 0  9995
2 40090  47.0037 214.3468 0015957  87.7079 272.5633 14.55284694530979
